[{"OBJECT_NAME":"STARLINK-33922","OBJECT_ID":"2025-087B","EPOCH":"2026-03-09T16:38:17.555136","MEAN_MOTION":15.3019444,"ECCENTRICITY":7.003e-5,"INCLINATION":53.1587,"RA_OF_ASC_NODE":219.2958,"ARG_OF_PERICENTER":65.32,"MEAN_ANOMALY":294.7873,"EPHEMERIS_TYPE":0,"CLASSIFICATION_TYPE":"U","NORAD_CAT_ID":63698,"ELEMENT_SET_NO":999,"REV_AT_EPOCH":4919,"BSTAR":0.00069519657,"MEAN_MOTION_DOT":0.00020283,"MEAN_MOTION_DDOT":0},{"OBJECT_NAME":"SCS-01 D","OBJECT_ID":"2025-100D","EPOCH":"2026-03-09T18:08:45.040704","MEAN_MOTION":15.31902149,"ECCENTRICITY":0.00063457,"INCLINATION":97.373,"RA_OF_ASC_NODE":145.4097,"ARG_OF_PERICENTER":266.2302,"MEAN_ANOMALY":93.8214,"EPHEMERIS_TYPE":0,"CLASSIFICATION_TYPE":"U","NORAD_CAT_ID":63985,"ELEMENT_SET_NO":999,"REV_AT_EPOCH":4562,"BSTAR":0.0010528181,"MEAN_MOTION_DOT":0.00032471,"MEAN_MOTION_DDOT":0}]
